RS57S MONITOR-4
1 57182U 23091S   26054.59610479  .00010438  00000+0  41472-3 0  9992
2 57182  97.5226 117.2970 0013476 137.0494 223.1799 15.25423408146965
RS-38S
1 57189U 23091Z   26054.85501411  .00018014  00000+0  58106-3 0  9993
2 57189  97.5225 122.3212 0009158 114.5099 245.7098 15.32172653147313
RS49S NANOZOND-1
1 57190U 23091AA  26054.80181737  .00163366  00000+0  13870-2 0  9994
2 57190  97.5105 133.9928 0001703 117.7211 242.4223 15.69132611148093
RS27S UTMN-2
1 57203U 23091AP  26054.83098655  .00014681  00000+0  52252-3 0  9991
2 57203  97.5227 120.6577 0009931 118.7996 241.4242 15.29019992147202
METEOR-M2-4
1 59051U 24039A   26054.86196516  .00000041  00000+0  37952-4 0  9991
2 59051  98.6880  15.6668 0007805 131.4890 228.6959 14.22414724103151
SONATE-2
1 59112U 24043Q   26054.65669568  .00038153  00000+0  67591-3 0  9999
2 59112  97.5382 198.9258 0007880 258.1534 101.8834 15.50148290110256
MO-122
1 60209U 24125G   26054.84584633  .00042061  00000+0  69056-3 0  9990
2 60209  97.2473 270.5557 0011266 278.4051  81.5925 15.52234171 91927
GRBBeta
1 60237U 24128C   26054.82745410  .00005297  00000+0  36894-3 0  9998
2 60237  61.9888 253.7038 0052789 111.5180 249.1552 15.05596042 89198
Curium One
1 60242U 24128H   26054.25701787  .00011733  00000+0  69872-3 0  9994
2 60242  61.9778 248.7154 0052534 108.2549 252.4273 15.10456191 89233
ROBUSTA-3A
1 60243U 24128J   26053.96253431  .00008760  00000+0  53540-3 0  9991
2 60243  61.9855 251.6230 0053293 105.6649 255.0334 15.09741182 89167
CatSat
1 60246U 24125J   26054.85404284  .00045745  00000+0  88271-3 0  9997
2 60246  97.2235 266.7653 0027730 240.0306 119.8191 15.47260319 89800
ARTIC WX
1 60543U 24149CD  26054.64534579  .00000929  00000+0  10239-3 0  9995
2 60543  97.6908 128.3066 0003511 114.8309 245.3274 14.89808971 82395
ARCTICSAT 1
1 61762U 24199AD  26054.81334596  .00090219  00000+0  99404-3 0  9992
2 61762  97.3119 292.6399 0004703 330.8071  29.2924 15.62815885120224
HYPERVIEW-1G (RS66S)
1 61772U 24199AP  26054.80964208  .00062896  00000+0  90015-3 0  9990
2 61772  97.3112 290.5390 0008287 345.9062  14.1960 15.55963534116948
AO-123
1 61781U 24199AY  26054.85130065  .00010501  00000+0  32312-3 0  9993
2 61781  97.3176 284.5661 0014295   2.2744 357.8561 15.33743699116542
SAMSAT-IONOSPHERE
1 61784U 24199BB  26054.84537383  .00037145  00000+0  70076-3 0  9991
2 61784  97.3140 288.7283 0010228 350.1991   9.9059 15.48329773119979
CROCUBE
1 62394U 24247T   26054.71077995  .00038117  00000+0  93219-3 0  9991
2 62394  44.9730 175.2610 0003509 289.3029  70.7479 15.40214190 65805
JINJUSat 1B
1 63210U 25052A   26053.68529717  .00020138  00000+0  70423-3 0  9999
2 63210  97.4136 310.5213 0005107 113.9813 246.1963 15.29557325 52572
NUSHSAT 1
1 63211U 25052B   26053.94611237  .00024412  00000+0  81190-3 0  9990
2 63211  97.4114 311.0277 0004955 115.2829 244.8926 15.31149119 52639
TEVEL2-4
1 63213U 25052D   26054.63812557  .00021506  00000+0  73569-3 0  9999
2 63213  97.4036 311.1068 0003994 121.5714 238.5917 15.30265589 52727
TEVEL2-5
1 63214U 25052E   26054.45182779  .00023241  00000+0  79765-3 0  9998
2 63214  97.4037 310.8966 0003879 123.3847 236.7765 15.30144527 52696
TEVEL2-6
1 63215U 25052F   26054.19967656  .00023611  00000+0  81160-3 0  9998
2 63215  97.4034 310.6319 0003936 124.2470 235.9144 15.30089920 52653
TEVEL2-1
1 63217U 25052H   26054.25945595  .00022587  00000+0  78622-3 0  9995
2 63217  97.4010 310.4372 0003618 134.8815 225.2720 15.29691396 52659
TEVEL2-3
1 63218U 25052J   26054.25735734  .00023179  00000+0  80584-3 0  9996
2 63218  97.4015 310.4455 0003649 135.7348 224.4185 15.29725039 52650
TEVEL2-2
1 63219U 25052K   26054.26013393  .00023096  00000+0  80377-3 0  9996
2 63219  97.4014 310.4385 0003591 136.5189 223.6335 15.29693716 52654
TEVEL2-9
1 63237U 25052AD  26054.23258848  .00021154  00000+0  77472-3 0  9994
2 63237  97.4075 310.0059 0006414 168.3432 191.7958 15.28026108 52601
TEVEL2-7
1 63238U 25052AE  26054.45139245  .00020607  00000+0  75934-3 0  9991
2 63238  97.4079 310.1794 0006576 168.0303 192.1094 15.27828295 52631
TEVEL2-8
1 63239U 25052AF  26054.19622305  .00020749  00000+0  76536-3 0  9993
2 63239  97.4073 309.9071 0006388 169.6716 190.4656 15.27794569 52592
HYDRA-W
1 63490U 25052BL  26054.46543161  .00170603  00000+0  22688-2 0  9997
2 63490  97.3959 315.0362 0007461 134.6463 225.5402 15.57570595 52973
HADES-ICM (SO-125)
1 63492U 25052BN  26054.79552941  .00116675  00000+0  18539-2 0  9990
2 63492  97.3978 314.7792 0007021 141.7220 218.4533 15.52892325 52981
PARUS-T2
1 64574U 25135AY  26054.73571738  .00005768  00000+0  53556-3 0  9992
2 64574  97.7605 170.7428 0001908  32.7988 327.3351 14.94780691 36974
BOTAN
1 65942U 98067XP  26054.53888935  .00821692  32163-3  16448-2 0  9993
2 65942  51.6123 124.5371 0009859   9.5514 350.5681 15.99106624 21345
CEVROSAT1
1 66309U 25248S   26054.22744646  .00005695  00000+0  27963-3 0  9991
2 66309  45.4066  12.1752 0002147 140.7645 219.3397 15.19086775 17179
SPIRONE
1 66657U 25274H   26054.74398487  .00003422  00000+0  33436-3 0  9999
2 66657  97.7427 345.7398 0013332  37.9728 322.2429 14.92967873 13290
K-HERO
1 66660U 25274L   26054.78172811  .00002285  00000+0  22236-3 0  9990
2 66660  97.7435 345.8516 0015305  40.8045 319.4317 14.93433178 13306
SNUGLITE-III DURI
1 66661U 25274M   26054.77443317  .00002299  00000+0  22315-3 0  9995
2 66661  97.7432 345.8577 0015980  41.8034 318.4403 14.93530765 13304
SilverSat
1 66909U 98067XV  26054.25515320  .00157770  00000+0  14300-2 0  9996
2 66909  51.6249 138.5152 0004615 357.9076   2.1899 15.67000186 12924
GALAPAGOS
1 67279U 25313AH  26054.79820159  .00008729  00000+0  39423-3 0  9992
2 67279  97.4020 131.2838 0015466  46.7583 313.4940 15.21098695  8701
Lobachevsky
1 67282U 25313AL  26054.77115398  .00007120  00000+0  31696-3 0  9994
2 67282  97.4022 131.3077 0011744  44.1601 316.0571 15.21709867  8700
SAKHACUBE-CHOLBON
1 67290U 25313AU  26054.68564955  .00012864  00000+0  55646-3 0  9992
2 67290  97.4028 131.2825 0010304  42.4485 317.7547 15.22528522  8694
QMR-KWT
1 67291U 25313AV  26054.67837023  .00017225  00000+0  73400-3 0  9995
2 67291  97.4029 131.2919 0009921  41.7930 318.4063 15.22975461  8699
Delfi-N3xt
1 39428U 13066N   26054.27607758  .00008471  00000-0  76784-3 0  9996
2 39428  97.8346 334.8352 0075324 224.7378 134.7751 14.93423048657618
RSP-03
1 65732U 98067XL  26047.27951905  .10199253  12460-4  79249-3 0  9991
2 65732  51.6061 154.7117 0006246 319.9198  40.1367 16.39378610 23558
IO-86
1 40931U          25360.30710720  .00000000  00000-0  12800-3 0    00
2 40931   6.0006 332.5373 0012733 338.8432   8.1437 14.79075515    01
PARUS-T1
1 98707U 25009N   25063.20000000  .00000000  00000-0  00000-0 0    08
2 98707  97.4430 144.9801 0003811 149.1702 136.3402 15.16239457    06
T.MicroSat-1
1 98515U 25276Y   25347.12519372 +.00009703 +00000+0 +47621-3 0 00218
2 98515  97.4377  58.8963 0002080  99.7173 260.4296 15.18293117002180
CORIOLIS
1 27640U 03001A   26054.46534983  .00000145  00000+0  88770-4 0  9995
2 27640  98.7161  63.0741 0014079 176.1877 183.9409 14.19906484198088
